QIANFAN-97              
1 66039U 25233G   25308.79417454  .00000645  00000+0  26308-3 0  9994
2 66039  88.9951  66.3986 0015602 154.5493 205.6472 14.26161373  2630
QIANFAN-98              
1 66040U 25233H   25308.79392669  .00000647  00000+0  26396-3 0  9995
2 66040  88.9951  66.3986 0015238 153.2793 206.9188 14.26182838  2633
QIANFAN-99              
1 66041U 25233J   25308.79379681  .00000651  00000+0  26558-3 0  9990
2 66041  88.9951  66.3985 0015378 152.4093 207.7920 14.26198322  2630
QIANFAN-100             
1 66042U 25233K   25308.79372353  .00000637  00000+0  25963-3 0  9993
2 66042  88.9951  66.3986 0015835 154.0828 206.1162 14.26213892  2635
QIANFAN-101             
1 66043U 25233L   25308.79131360  .00000420  00000+0  16779-3 0  9990
2 66043  88.9951  66.3982 0015766 152.3312 207.8724 14.26634787  2636
QIANFAN-102             
1 66044U 25233M   25308.79361839  .00000672  00000+0  27420-3 0  9991
2 66044  88.9950  66.3984 0016190 154.1928 206.0077 14.26218115  2638
QIANFAN-103             
1 66045U 25233N   25308.79332625  .00000656  00000+0  26740-3 0  9999
2 66045  88.9951  66.3986 0015590 152.9544 207.2465 14.26247296  2631
QIANFAN-104             
1 66046U 25233P   25308.79311132  .00000660  00000+0  26911-3 0  9995
2 66046  88.9951  66.3986 0015567 155.2209 204.9735 14.26268030  2633
